EUTELSAT 7A             
1 28187U 04008A   25323.49117789  .00000122  00000+0  00000+0 0  9992
2 28187   5.2973  74.5135 0000811 144.9531 236.9446  1.00269805 79254
EUTELSAT 174A           
1 28924U 05052A   25323.48199117  .00000029  00000+0  00000+0 0  9991
2 28924   3.6870  79.1239 0006108 158.6049 168.6206  1.00268209 50226
EUTELSAT HOTBIRD 13B    
1 29270U 06032A   25323.52541144  .00000176  00000+0  00000+0 0  9994
2 29270   1.1183  84.5634 0003326 150.6241  45.8622  1.00272978 45203
EUTELSAT HOTBIRD 13C    
1 33459U 08065A   25323.44177762 -.00000213  00000+0  00000+0 0  9991
2 33459   2.4093  81.6709 0000951 115.6853 351.4993  1.00054273 45240
EUTELSAT 36B            
1 36101U 09065A   25323.52887812  .00000132  00000+0  00000+0 0  9991
2 36101   0.0420 344.6751 0006123 256.8556  58.2117  1.00275037 58606
EUTELSAT KA-SAT 9A      
1 37258U 10069A   25323.52064475  .00000082  00000+0  00000+0 0  9997
2 37258   0.0582 320.1540 0002751 223.1345  71.9929  1.00269450 41900
EUTELSAT 7 WEST A       
1 37816U 11051A   25323.37469722 -.00000040  00000+0  00000+0 0  9991
2 37816   0.0727  22.2177 0006015 196.2447 327.7944  1.00272651 51779
EUTELSAT 16A            
1 37836U 11057A   25323.52185808  .00000125  00000+0  00000+0 0  9999
2 37836   0.0611 349.6284 0006037 257.9596  15.1239  1.00273261  5224
